STARLINK-2022           
1 47643U 21012Z   24136.41603484 -.00001447  00000+0 -78236-4 0  9993
2 47643  53.0534 149.1642 0001346  93.9361 266.1782 15.06407833179778
